[
  {
    "CCSDS_OMM_VERS": "3.0",
    "COMMENT": "GENERATED VIA SPACE-TRACK.ORG API",
    "CREATION_DATE": "2026-02-19T17:59:09",
    "ORIGINATOR": "18 SPCS",
    "OBJECT_NAME": "COSMOS 1823 DEB",
    "OBJECT_ID": "1987-020V",
    "CENTER_NAME": "EARTH",
    "REF_FRAME": "TEME",
    "TIME_SYSTEM": "UTC",
    "MEAN_ELEMENT_THEORY": "SGP4",
    "EPOCH": "2026-02-19T15:10:18.058080",
    "MEAN_MOTION": "12.59318019",
    "ECCENTRICITY": "0.00523254",
    "INCLINATION": "73.5172",
    "RA_OF_ASC_NODE": "22.5289",
    "ARG_OF_PERICENTER": "300.6914",
    "MEAN_ANOMALY": "173.7244",
    "EPHEMERIS_TYPE": "0",
    "CLASSIFICATION_TYPE": "U",
    "NORAD_CAT_ID": "18742",
    "ELEMENT_SET_NO": "999",
    "REV_AT_EPOCH": "74703",
    "BSTAR": "0.00004972895500",
    "MEAN_MOTION_DOT": "-0.00000010",
    "MEAN_MOTION_DDOT": "0.0000000000000",
    "SEMIMAJOR_AXIS": "7803.898",
    "PERIOD": "114.348",
    "APOAPSIS": "1466.597",
    "PERIAPSIS": "1384.928",
    "OBJECT_TYPE": "DEBRIS",
    "RCS_SIZE": "SMALL",
    "COUNTRY_CODE": "CIS",
    "LAUNCH_DATE": "1987-02-20",
    "SITE": "PKMTR",
    "DECAY_DATE": null,
    "FILE": "5039972",
    "GP_ID": "313160212",
    "TLE_LINE0": "0 COSMOS 1823 DEB",
    "TLE_LINE1": "1 18742U 87020V   26050.63215345 -.00000010  00000-0  49729-4 0  9998",
    "TLE_LINE2": "2 18742  73.5172  22.5289 0052325 300.6914 173.7244 12.59318019747035"
  },
  {
    "CCSDS_OMM_VERS": "3.0",
    "COMMENT": "GENERATED VIA SPACE-TRACK.ORG API",
    "CREATION_DATE": "2026-02-19T17:59:09",
    "ORIGINATOR": "18 SPCS",
    "OBJECT_NAME": "DELTA 1 DEB",
    "OBJECT_ID": "1975-052AN",
    "CENTER_NAME": "EARTH",
    "REF_FRAME": "TEME",
    "TIME_SYSTEM": "UTC",
    "MEAN_ELEMENT_THEORY": "SGP4",
    "EPOCH": "2026-02-19T15:10:06.285216",
    "MEAN_MOTION": "13.73699348",
    "ECCENTRICITY": "0.01286234",
    "INCLINATION": "99.5241",
    "RA_OF_ASC_NODE": "290.2537",
    "ARG_OF_PERICENTER": "51.1956",
    "MEAN_ANOMALY": "329.5459",
    "EPHEMERIS_TYPE": "0",
    "CLASSIFICATION_TYPE": "U",
    "NORAD_CAT_ID": "21320",
    "ELEMENT_SET_NO": "999",
    "REV_AT_EPOCH": "73942",
    "BSTAR": "0.00021673402000",
    "MEAN_MOTION_DOT": "0.00000171",
    "MEAN_MOTION_DDOT": "0.0000000000000",
    "SEMIMAJOR_AXIS": "7364.457",
    "PERIOD": "104.826",
    "APOAPSIS": "1081.046",
    "PERIAPSIS": "891.598",
    "OBJECT_TYPE": "DEBRIS",
    "RCS_SIZE": "SMALL",
    "COUNTRY_CODE": "US",
    "LAUNCH_DATE": "1975-06-12",
    "SITE": "AFWTR",
    "DECAY_DATE": null,
    "FILE": "5039972",
    "GP_ID": "313160625",
    "TLE_LINE0": "0 DELTA 1 DEB",
    "TLE_LINE1": "1 21320U 75052AN  26050.63201719  .00000171  00000-0  21673-3 0  9990",
    "TLE_LINE2": "2 21320  99.5241 290.2537 0128623  51.1956 329.5459 13.73699348739422"
  },
  {
    "CCSDS_OMM_VERS": "3.0",
    "COMMENT": "GENERATED VIA SPACE-TRACK.ORG API",
    "CREATION_DATE": "2026-02-19T17:59:09",
    "ORIGINATOR": "18 SPCS",
    "OBJECT_NAME": "CZ-6A DEB",
    "OBJECT_ID": "2024-140UG",
    "CENTER_NAME": "EARTH",
    "REF_FRAME": "TEME",
    "TIME_SYSTEM": "UTC",
    "MEAN_ELEMENT_THEORY": "SGP4",
    "EPOCH": "2026-02-19T15:09:57.923424",
    "MEAN_MOTION": "14.38279848",
    "ECCENTRICITY": "0.00356892",
    "INCLINATION": "89.0280",
    "RA_OF_ASC_NODE": "288.2697",
    "ARG_OF_PERICENTER": "276.7078",
    "MEAN_ANOMALY": "83.0061",
    "EPHEMERIS_TYPE": "0",
    "CLASSIFICATION_TYPE": "U",
    "NORAD_CAT_ID": "61319",
    "ELEMENT_SET_NO": "999",
    "REV_AT_EPOCH": "7737",
    "BSTAR": "0.00075004758000",
    "MEAN_MOTION_DOT": "0.00002311",
    "MEAN_MOTION_DDOT": "0.0000000000000",
    "SEMIMAJOR_AXIS": "7142.324",
    "PERIOD": "100.120",
    "APOAPSIS": "789.680",
    "PERIAPSIS": "738.699",
    "OBJECT_TYPE": "DEBRIS",
    "RCS_SIZE": "SMALL",
    "COUNTRY_CODE": "PRC",
    "LAUNCH_DATE": "2024-08-06",
    "SITE": "TSC",
    "DECAY_DATE": null,
    "FILE": "5039972",
    "GP_ID": "313182006",
    "TLE_LINE0": "0 CZ-6A DEB",
    "TLE_LINE1": "1 61319U 24140UG  26050.63192041  .00002311  00000-0  75005-3 0  9997",
    "TLE_LINE2": "2 61319  89.0280 288.2697 0035689 276.7078  83.0061 14.38279848 77375"
  },
  {
    "CCSDS_OMM_VERS": "3.0",
    "COMMENT": "GENERATED VIA SPACE-TRACK.ORG API",
    "CREATION_DATE": "2026-02-19T17:59:09",
    "ORIGINATOR": "18 SPCS",
    "OBJECT_NAME": "SL-16 DEB",
    "OBJECT_ID": "1993-016Q",
    "CENTER_NAME": "EARTH",
    "REF_FRAME": "TEME",
    "TIME_SYSTEM": "UTC",
    "MEAN_ELEMENT_THEORY": "SGP4",
    "EPOCH": "2026-02-19T15:09:45.329760",
    "MEAN_MOTION": "13.89095624",
    "ECCENTRICITY": "0.01475003",
    "INCLINATION": "71.0011",
    "RA_OF_ASC_NODE": "32.8074",
    "ARG_OF_PERICENTER": "336.9837",
    "MEAN_ANOMALY": "137.1107",
    "EPHEMERIS_TYPE": "0",
    "CLASSIFICATION_TYPE": "U",
    "NORAD_CAT_ID": "22606",
    "ELEMENT_SET_NO": "999",
    "REV_AT_EPOCH": "66296",
    "BSTAR": "0.00037314864000",
    "MEAN_MOTION_DOT": "0.00000449",
    "MEAN_MOTION_DDOT": "0.0000000000000",
    "SEMIMAJOR_AXIS": "7309.939",
    "PERIOD": "103.665",
    "APOAPSIS": "1039.626",
    "PERIAPSIS": "823.982",
    "OBJECT_TYPE": "DEBRIS",
    "RCS_SIZE": "SMALL",
    "COUNTRY_CODE": "CIS",
    "LAUNCH_DATE": "1993-03-26",
    "SITE": "TTMTR",
    "DECAY_DATE": null,
    "FILE": "5039972",
    "GP_ID": "313161390",
    "TLE_LINE0": "0 SL-16 DEB",
    "TLE_LINE1": "1 22606U 93016Q   26050.63177465  .00000449  00000-0  37315-3 0  9996",
    "TLE_LINE2": "2 22606  71.0011  32.8074 0147500 336.9837 137.1107 13.89095624662964"
  },
  {
    "CCSDS_OMM_VERS": "3.0",
    "COMMENT": "GENERATED VIA SPACE-TRACK.ORG API",
    "CREATION_DATE": "2026-02-19T17:59:09",
    "ORIGINATOR": "18 SPCS",
    "OBJECT_NAME": "CZ-6A DEB",
    "OBJECT_ID": "2024-140TJ",
    "CENTER_NAME": "EARTH",
    "REF_FRAME": "TEME",
    "TIME_SYSTEM": "UTC",
    "MEAN_ELEMENT_THEORY": "SGP4",
    "EPOCH": "2026-02-19T15:09:44.833824",
    "MEAN_MOTION": "14.21080431",
    "ECCENTRICITY": "0.00580865",
    "INCLINATION": "89.0446",
    "RA_OF_ASC_NODE": "291.1079",
    "ARG_OF_PERICENTER": "203.7942",
    "MEAN_ANOMALY": "156.0563",
    "EPHEMERIS_TYPE": "0",
    "CLASSIFICATION_TYPE": "U",
    "NORAD_CAT_ID": "61297",
    "ELEMENT_SET_NO": "999",
    "REV_AT_EPOCH": "7661",
    "BSTAR": "0.00119279090000",
    "MEAN_MOTION_DOT": "0.00002646",
    "MEAN_MOTION_DDOT": "0.0000000000000",
    "SEMIMAJOR_AXIS": "7199.838",
    "PERIOD": "101.331",
    "APOAPSIS": "863.525",
    "PERIAPSIS": "779.882",
    "OBJECT_TYPE": "DEBRIS",
    "RCS_SIZE": "SMALL",
    "COUNTRY_CODE": "PRC",
    "LAUNCH_DATE": "2024-08-06",
    "SITE": "TSC",
    "DECAY_DATE": null,
    "FILE": "5039972",
    "GP_ID": "313181497",
    "TLE_LINE0": "0 CZ-6A DEB",
    "TLE_LINE1": "1 61297U 24140TJ  26050.63176891  .00002646  00000-0  11928-2 0  9991",
    "TLE_LINE2": "2 61297  89.0446 291.1079 0058087 203.7942 156.0563 14.21080431 76612"
  },
  {
    "CCSDS_OMM_VERS": "3.0",
    "COMMENT": "GENERATED VIA SPACE-TRACK.ORG API",
    "CREATION_DATE": "2026-02-19T17:59:09",
    "ORIGINATOR": "18 SPCS",
    "OBJECT_NAME": "FENGYUN 1C DEB",
    "OBJECT_ID": "1999-025ACH",
    "CENTER_NAME": "EARTH",
    "REF_FRAME": "TEME",
    "TIME_SYSTEM": "UTC",
    "MEAN_ELEMENT_THEORY": "SGP4",
    "EPOCH": "2026-02-19T15:09:43.778880",
    "MEAN_MOTION": "14.19558973",
    "ECCENTRICITY": "0.01013085",
    "INCLINATION": "99.0479",
    "RA_OF_ASC_NODE": "113.0901",
    "ARG_OF_PERICENTER": "121.6264",
    "MEAN_ANOMALY": "32.0920",
    "EPHEMERIS_TYPE": "0",
    "CLASSIFICATION_TYPE": "U",
    "NORAD_CAT_ID": "30370",
    "ELEMENT_SET_NO": "999",
    "REV_AT_EPOCH": "98071",
    "BSTAR": "0.00081531488000",
    "MEAN_MOTION_DOT": "0.00001765",
    "MEAN_MOTION_DDOT": "0.0000000000000",
    "SEMIMAJOR_AXIS": "7204.982",
    "PERIOD": "101.440",
    "APOAPSIS": "899.839",
    "PERIAPSIS": "753.854",
    "OBJECT_TYPE": "DEBRIS",
    "RCS_SIZE": "SMALL",
    "COUNTRY_CODE": "PRC",
    "LAUNCH_DATE": "1999-05-10",
    "SITE": "TSC",
    "DECAY_DATE": null,
    "FILE": "5039972",
    "GP_ID": "313164421",
    "TLE_LINE0": "0 FENGYUN 1C DEB",
    "TLE_LINE1": "1 30370U 99025ACH 26050.63175670  .00001765  00000-0  81531-3 0  9996",
    "TLE_LINE2": "2 30370  99.0479 113.0901 0101309 121.6264  32.0920 14.19558973980717"
  },
  {
    "CCSDS_OMM_VERS": "3.0",
    "COMMENT": "GENERATED VIA SPACE-TRACK.ORG API",
    "CREATION_DATE": "2026-02-19T17:59:09",
    "ORIGINATOR": "18 SPCS",
    "OBJECT_NAME": "FENGYUN 1C DEB",
    "OBJECT_ID": "1999-025APH",
    "CENTER_NAME": "EARTH",
    "REF_FRAME": "TEME",
    "TIME_SYSTEM": "UTC",
    "MEAN_ELEMENT_THEORY": "SGP4",
    "EPOCH": "2026-02-19T15:09:41.579136",
    "MEAN_MOTION": "14.14345167",
    "ECCENTRICITY": "0.00692742",
    "INCLINATION": "99.1973",
    "RA_OF_ASC_NODE": "98.2547",
    "ARG_OF_PERICENTER": "356.9456",
    "MEAN_ANOMALY": "157.5223",
    "EPHEMERIS_TYPE": "0",
    "CLASSIFICATION_TYPE": "U",
    "NORAD_CAT_ID": "30650",
    "ELEMENT_SET_NO": "999",
    "REV_AT_EPOCH": "97272",
    "BSTAR": "0.00094411227000",
    "MEAN_MOTION_DOT": "0.00001800",
    "MEAN_MOTION_DDOT": "0.0000000000000",
    "SEMIMAJOR_AXIS": "7222.678",
    "PERIOD": "101.814",
    "APOAPSIS": "894.577",
    "PERIAPSIS": "794.508",
    "OBJECT_TYPE": "DEBRIS",
    "RCS_SIZE": "SMALL",
    "COUNTRY_CODE": "PRC",
    "LAUNCH_DATE": "1999-05-10",
    "SITE": "TSC",
    "DECAY_DATE": null,
    "FILE": "5039972",
    "GP_ID": "313164008",
    "TLE_LINE0": "0 FENGYUN 1C DEB",
    "TLE_LINE1": "1 30650U 99025APH 26050.63173124  .00001800  00000-0  94411-3 0  9990",
    "TLE_LINE2": "2 30650  99.1973  98.2547 0069274 356.9456 157.5223 14.14345167972723"
  }
]